{
  "type": "FeatureCollection",
  "features": [
    {
      "type": "Feature",
      "properties": {
        "norad_id": 66907,
        "name": "1998-067XT",
        "group": "last-30-days",
        "lat": -26.74716637446369,
        "lon": 112.86826396352194,
        "alt_km": 415.56165994093317,
        "timestamp": "2025-12-13T22:39:28.446615+00:00",
        "meta_object_name": "1998-067XT",
        "meta_object_id": "1998-067XT",
        "meta_epoch": "2025-12-12T17:26:16.026432",
        "meta_mean_motion": 15.5143678,
        "meta_eccentricity": 0.00044769,
        "meta_inclination": 51.6298,
        "meta_ra_of_asc_node": 142.4529,
        "meta_arg_of_pericenter": 226.787,
        "meta_mean_anomaly": 133.2746,
        "meta_ephemeris_type": 0,
        "meta_classification_type": "U",
        "meta_norad_cat_id": 66907,
        "meta_element_set_no": 999,
        "meta_rev_at_epoch": 161,
        "meta_bstar": 0.0013978666,
        "meta_mean_motion_dot": 0.0008442,
        "meta_mean_motion_ddot": 0,
        "tle_line1": "1 66907U 98067XT  25346.72657438  .00084420  00000+0  13979-2 0  9998",
        "tle_line2": "2 66907  51.6298 142.4529 0004476 226.7870 133.2746 15.51436780  1615"
      },
      "geometry": {
        "type": "Point",
        "coordinates": [
          112.86826396352194,
          -26.74716637446369
        ]
      }
    },
    {
      "type": "Feature",
      "properties": {
        "norad_id": 66908,
        "name": "1998-067XU",
        "group": "last-30-days",
        "lat": -25.094069344440896,
        "lon": 114.61962927600325,
        "alt_km": 415.1681437378693,
        "timestamp": "2025-12-13T22:39:28.446625+00:00",
        "meta_object_name": "1998-067XU",
        "meta_object_id": "1998-067XU",
        "meta_epoch": "2025-12-13T07:20:31.203744",
        "meta_mean_motion": 15.51634533,
        "meta_eccentricity": 0.00044658,
        "meta_inclination": 51.6298,
        "meta_ra_of_asc_node": 139.5715,
        "meta_arg_of_pericenter": 229.458,
        "meta_mean_anomaly": 130.6021,
        "meta_ephemeris_type": 0,
        "meta_classification_type": "U",
        "meta_norad_cat_id": 66908,
        "meta_element_set_no": 999,
        "meta_rev_at_epoch": 170,
        "meta_bstar": 0.0017363682,
        "meta_mean_motion_dot": 0.00106014,
        "meta_mean_motion_ddot": 0,
        "tle_line1": "1 66908U 98067XU  25347.30591671  .00106014  00000+0  17364-2 0  9996",
        "tle_line2": "2 66908  51.6298 139.5715 0004465 229.4580 130.6021 15.51634533  1709"
      },
      "geometry": {
        "type": "Point",
        "coordinates": [
          114.61962927600325,
          -25.094069344440896
        ]
      }
    },
    {
      "type": "Feature",
      "properties": {
        "norad_id": 66909,
        "name": "SILVERSAT",
        "group": "last-30-days",
        "lat": -23.27847437519128,
        "lon": 116.46306686838045,
        "alt_km": 414.8677027177546,
        "timestamp": "2025-12-13T22:39:28.446635+00:00",
        "meta_object_name": "SILVERSAT",
        "meta_object_id": "1998-067XV",
        "meta_epoch": "2025-12-12T22:03:29.727648",
        "meta_mean_motion": 15.51661311,
        "meta_eccentricity": 0.00044499,
        "meta_inclination": 51.6297,
        "meta_ra_of_asc_node": 141.4878,
        "meta_arg_of_pericenter": 228.6613,
        "meta_mean_anomaly": 131.3994,
        "meta_ephemeris_type": 0,
        "meta_classification_type": "U",
        "meta_norad_cat_id": 66909,
        "meta_element_set_no": 999,
        "meta_rev_at_epoch": 164,
        "meta_bstar": 0.0015570359,
        "meta_mean_motion_dot": 0.00094974,
        "meta_mean_motion_ddot": 0,
        "tle_line1": "1 66909U 98067XV  25346.91909407  .00094974  00000+0  15570-2 0  9991",
        "tle_line2": "2 66909  51.6297 141.4878 0004449 228.6613 131.3994 15.51661311  1645"
      },
      "geometry": {
        "type": "Point",
        "coordinates": [
          116.46306686838045,
          -23.27847437519128
        ]
      }
    },
    {
      "type": "Feature",
      "properties": {
        "norad_id": 66910,
        "name": "1998-067XW",
        "group": "last-30-days",
        "lat": -16.674755512841823,
        "lon": 122.64638232318902,
        "alt_km": 415.6880870072009,
        "timestamp": "2025-12-13T22:39:28.446645+00:00",
        "meta_object_name": "1998-067XW",
        "meta_object_id": "1998-067XW",
        "meta_epoch": "2025-12-12T20:28:35.609952",
        "meta_mean_motion": 15.51770354,
        "meta_eccentricity": 0.00052525,
        "meta_inclination": 51.6298,
        "meta_ra_of_asc_node": 141.7982,
        "meta_arg_of_pericenter": 209.4111,
        "meta_mean_anomaly": 150.6584,
        "meta_ephemeris_type": 0,
        "meta_classification_type": "U",
        "meta_norad_cat_id": 66910,
        "meta_element_set_no": 999,
        "meta_rev_at_epoch": 163,
        "meta_bstar": 0.001333891,
        "meta_mean_motion_dot": 0.00081487,
        "meta_mean_motion_ddot": 0,
        "tle_line1": "1 66910U 98067XW  25346.85318993  .00081487  00000+0  13339-2 0  9996",
        "tle_line2": "2 66910  51.6298 141.7982 0005252 209.4111 150.6584 15.51770354  1636"
      },
      "geometry": {
        "type": "Point",
        "coordinates": [
          122.64638232318902,
          -16.674755512841823
        ]
      }
    },
    {
      "type": "Feature",
      "properties": {
        "norad_id": 66911,
        "name": "1998-067XX",
        "group": "last-30-days",
        "lat": -12.729307970483909,
        "lon": 126.05346404106992,
        "alt_km": 414.5302871036829,
        "timestamp": "2025-12-13T22:39:28.446657+00:00",
        "meta_object_name": "1998-067XX",
        "meta_object_id": "1998-067XX",
        "meta_epoch": "2025-12-12T17:22:05.659968",
        "meta_mean_motion": 15.51996459,
        "meta_eccentricity": 0.0004979,
        "meta_inclination": 51.6296,
        "meta_ra_of_asc_node": 142.4333,
        "meta_arg_of_pericenter": 210.3883,
        "meta_mean_anomaly": 149.6819,
        "meta_ephemeris_type": 0,
        "meta_classification_type": "U",
        "meta_norad_cat_id": 66911,
        "meta_element_set_no": 999,
        "meta_rev_at_epoch": 160,
        "meta_bstar": 0.0015692424,
        "meta_mean_motion_dot": 0.00096916,
        "meta_mean_motion_ddot": 0,
        "tle_line1": "1 66911U 98067XX  25346.72367662  .00096916  00000+0  15692-2 0  9997",
        "tle_line2": "2 66911  51.6296 142.4333 0004979 210.3883 149.6819 15.51996459  1607"
      },
      "geometry": {
        "type": "Point",
        "coordinates": [
          126.05346404106992,
          -12.729307970483909
        ]
      }
    },
    {
      "type": "Feature",
      "properties": {
        "norad_id": 66912,
        "name": "1998-067XY",
        "group": "last-30-days",
        "lat": -31.51278438984038,
        "lon": 107.35377269328794,
        "alt_km": 416.7239117774343,
        "timestamp": "2025-12-13T22:39:28.446667+00:00",
        "meta_object_name": "1998-067XY",
        "meta_object_id": "1998-067XY",
        "meta_epoch": "2025-12-12T17:27:38.564352",
        "meta_mean_motion": 15.5112646,
        "meta_eccentricity": 0.00045766,
        "meta_inclination": 51.63,
        "meta_ra_of_asc_node": 142.4585,
        "meta_arg_of_pericenter": 223.461,
        "meta_mean_anomaly": 136.6019,
        "meta_ephemeris_type": 0,
        "meta_classification_type": "U",
        "meta_norad_cat_id": 66912,
        "meta_element_set_no": 999,
        "meta_rev_at_epoch": 160,
        "meta_bstar": 0.0011286003,
        "meta_mean_motion_dot": 0.00067169,
        "meta_mean_motion_ddot": 0,
        "tle_line1": "1 66912U 98067XY  25346.72752968  .00067169  00000+0  11286-2 0  9998",
        "tle_line2": "2 66912  51.6300 142.4585 0004576 223.4610 136.6019 15.51126460  1604"
      },
      "geometry": {
        "type": "Point",
        "coordinates": [
          107.35377269328794,
          -31.51278438984038
        ]
      }
    },
    {
      "type": "Feature",
      "properties": {
        "norad_id": 66913,
        "name": "2025-284A",
        "group": "last-30-days",
        "lat": 17.718109779526603,
        "lon": -54.86020278107619,
        "alt_km": 502.8357633860951,
        "timestamp": "2025-12-13T22:39:28.446679+00:00",
        "meta_object_name": "2025-284A",
        "meta_object_id": "2025-284A",
        "meta_epoch": "2025-12-13T06:08:14.638272",
        "meta_mean_motion": 15.18984004,
        "meta_eccentricity": 0.00120355,
        "meta_inclination": 80.4043,
        "meta_ra_of_asc_node": 129.1107,
        "meta_arg_of_pericenter": 203.06,
        "meta_mean_anomaly": 157.0089,
        "meta_ephemeris_type": 0,
        "meta_classification_type": "U",
        "meta_norad_cat_id": 66913,
        "meta_element_set_no": 999,
        "meta_rev_at_epoch": 120,
        "meta_bstar": 0.00073861836,
        "meta_mean_motion_dot": 0.00015511,
        "meta_mean_motion_ddot": 0,
        "tle_line1": "1 66913U 25284A   25347.25572498  .00015511  00000+0  73862-3 0  9990",
        "tle_line2": "2 66913  80.4043 129.1107 0012035 203.0600 157.0089 15.18984004  1202"
      },
      "geometry": {
        "type": "Point",
        "coordinates": [
          -54.86020278107619,
          17.718109779526603
        ]
      }
    }
  ]
}